start=new Date('2022-01-14T00:00:00.000Z').valueOf();
sats=[{"TLE_LINE1":"1 45395U 20019AM  22013.63019836 -.00000018  00000-0  17700-4 0  9991","CENTER_NAME":"EARTH","NORAD_CAT_ID":"45395","EPOCH":"2022-01-13T15:07:29.138304","MEAN_ELEMENT_THEORY":"SGP4","RA_OF_ASC_NODE":"112.4847","TIME_SYSTEM":"UTC","OBJECT_TYPE":"PAYLOAD","RCS_SIZE":"LARGE","MEAN_ANOMALY":"255.5610","OBJECT_ID":"2020-019AM","COUNTRY_CODE":"US","MEAN_MOTION":"15.06390745","ARG_OF_PERICENTER":"104.5513","SEMIMAJOR_AXIS":"6925.377","LAUNCH_DATE":"2020-03-18","REV_AT_EPOCH":"10068","REF_FRAME":"TEME","INCLINATION":"53.0551","BSTAR":"0.00001770000000","FILE":"3272312","ECCENTRICITY":"0.00012060","GP_ID":"193810286","APOAPSIS":"548.077","TLE_LINE2":"2 45395  53.0551 112.4847 0001206 104.5513 255.5610 15.06390745100681","PERIAPSIS":"546.407","OBJECT_NAME":"STARLINK-1297","DECAY_DATE":null,"CLASSIFICATION_TYPE":"U","SITE":"AFETR","MEAN_MOTION_DOT":"-0.00000018","ELEMENT_SET_NO":"999","EPHEMERIS_TYPE":"0","MEAN_MOTION_DDOT":"0.0000000000000","PERIOD":"95.593"},{"LAUNCH_DATE":"2020-03-18","ARG_OF_PERICENTER":"101.8710","SEMIMAJOR_AXIS":"6925.376","MEAN_MOTION":"15.06390889","COUNTRY_CODE":"US","REV_AT_EPOCH":"10123","RCS_SIZE":"LARGE","OBJECT_TYPE":"PAYLOAD","TIME_SYSTEM":"UTC","RA_OF_ASC_NODE":"111.9599","MEAN_ELEMENT_THEORY":"SGP4","EPOCH":"2022-01-13T17:52:01.446816","NORAD_CAT_ID":"45396","TLE_LINE1":"1 45396U 20019AN  22013.74446119  .00000823  00000-0  74174-4 0  9993","CENTER_NAME":"EARTH","OBJECT_ID":"2020-019AN","MEAN_ANOMALY":"258.2424","ELEMENT_SET_NO":"999","MEAN_MOTION_DOT":"0.00000823","SITE":"AFETR","CLASSIFICATION_TYPE":"U","DECAY_DATE":null,"OBJECT_NAME":"STARLINK-1303","TLE_LINE2":"2 45396  53.0540 111.9599 0001288 101.8710 258.2424 15.06390889101231","PERIAPSIS":"546.349","MEAN_MOTION_DDOT":"0.0000000000000","PERIOD":"95.593","EPHEMERIS_TYPE":"0","BSTAR":"0.00007417400000","INCLINATION":"53.0540","REF_FRAME":"TEME","APOAPSIS":"548.133","GP_ID":"193809034","FILE":"3272312","ECCENTRICITY":"0.00012880"},{"RCS_SIZE":"LARGE","TIME_SYSTEM":"UTC","OBJECT_TYPE":"PAYLOAD","RA_OF_ASC_NODE":"112.8029","TLE_LINE1":"1 45397U 20019AP  22013.55647357  .00001853  00000-0  14326-3 0  9996","CENTER_NAME":"EARTH","NORAD_CAT_ID":"45397","EPOCH":"2022-01-13T13:21:19.316448","MEAN_ELEMENT_THEORY":"SGP4","OBJECT_ID":"2020-019AP","MEAN_ANOMALY":"260.0973","LAUNCH_DATE":"2020-03-18","COUNTRY_CODE":"US","MEAN_MOTION":"15.06394677","ARG_OF_PERICENTER":"100.0162","SEMIMAJOR_AXIS":"6925.365","REV_AT_EPOCH":"10131","BSTAR":"0.00014326000000","INCLINATION":"53.0540","REF_FRAME":"TEME","APOAPSIS":"548.125","GP_ID":"193777482","ECCENTRICITY":"0.00012920","FILE":"3271980","MEAN_MOTION_DOT":"0.00001853","ELEMENT_SET_NO":"999","DECAY_DATE":null,"CLASSIFICATION_TYPE":"U","SITE":"AFETR","OBJECT_NAME":"STARLINK-1307","TLE_LINE2":"2 45397  53.0540 112.8029 0001292 100.0162 260.0973 15.06394677101315","PERIAPSIS":"546.335","MEAN_MOTION_DDOT":"0.0000000000000","PERIOD":"95.592","EPHEMERIS_TYPE":"0"},{"REF_FRAME":"TEME","INCLINATION":"53.0540","BSTAR":"0.00007136400000","FILE":"3271980","ECCENTRICITY":"0.00014160","APOAPSIS":"548.197","GP_ID":"193778734","PERIAPSIS":"546.236","TLE_LINE2":"2 45398  53.0540 112.8329 0001416  97.7369 262.3781 15.06399108101246","OBJECT_NAME":"STARLINK-1312","DECAY_DATE":null,"CLASSIFICATION_TYPE":"U","SITE":"AFETR","MEAN_MOTION_DOT":"0.00000782","ELEMENT_SET_NO":"999","EPHEMERIS_TYPE":"0","PERIOD":"95.592","MEAN_MOTION_DDOT":"0.0000000000000","TLE_LINE1":"1 45398U 20019AQ  22013.54910226  .00000782  00000-0  71364-4 0  9990","CENTER_NAME":"EARTH","NORAD_CAT_ID":"45398","MEAN_ELEMENT_THEORY":"SGP4","EPOCH":"2022-01-13T13:10:42.435264","RA_OF_ASC_NODE":"112.8329","OBJECT_TYPE":"PAYLOAD","TIME_SYSTEM":"UTC","RCS_SIZE":"LARGE","MEAN_ANOMALY":"262.3781","OBJECT_ID":"2020-019AQ","MEAN_MOTION":"15.06399108","COUNTRY_CODE":"US","SEMIMAJOR_AXIS":"6925.351","ARG_OF_PERICENTER":"97.7369","LAUNCH_DATE":"2020-03-18","REV_AT_EPOCH":"10124"},{"SEMIMAJOR_AXIS":"6925.361","ARG_OF_PERICENTER":"80.6502","MEAN_MOTION":"15.06396078","COUNTRY_CODE":"US","LAUNCH_DATE":"2020-03-18","REV_AT_EPOCH":"10144","EPOCH":"2022-01-13T14:10:25.572000","MEAN_ELEMENT_THEORY":"SGP4","CENTER_NAME":"EARTH","TLE_LINE1":"1 45399U 20019AR  22013.59057375  .00000306  00000-0  39400-4 0  9990","NORAD_CAT_ID":"45399","RA_OF_ASC_NODE":"102.6495","TIME_SYSTEM":"UTC","OBJECT_TYPE":"PAYLOAD","RCS_SIZE":"LARGE","MEAN_ANOMALY":"279.4617","OBJECT_ID":"2020-019AR","TLE_LINE2":"2 45399  53.0542 102.6495 0001143  80.6502 279.4617 15.06396078101449","PERIAPSIS":"546.434","OBJECT_NAME":"STARLINK-1255","CLASSIFICATION_TYPE":"U","SITE":"AFETR","DECAY_DATE":null,"ELEMENT_SET_NO":"999","MEAN_MOTION_DOT":"0.00000306","EPHEMERIS_TYPE":"0","PERIOD":"95.592","MEAN_MOTION_DDOT":"0.0000000000000","REF_FRAME":"TEME","INCLINATION":"53.0542","BSTAR":"0.00003940000000","ECCENTRICITY":"0.00011430","FILE":"3272312","APOAPSIS":"548.017","GP_ID":"193809786"},{"OBJECT_ID":"2020-019AS","MEAN_ANOMALY":"289.3936","TIME_SYSTEM":"UTC","OBJECT_TYPE":"PAYLOAD","RCS_SIZE":"LARGE","NORAD_CAT_ID":"45400","TLE_LINE1":"1 45400U 20019AS  22013.73800723  .00000715  00000-0  66858-4 0  9993","CENTER_NAME":"EARTH","EPOCH":"2022-01-13T17:42:43.824672","MEAN_ELEMENT_THEORY":"SGP4","RA_OF_ASC_NODE":"102.0022","REV_AT_EPOCH":"10139","LAUNCH_DATE":"2020-03-18","COUNTRY_CODE":"US","MEAN_MOTION":"15.06400207","SEMIMAJOR_AXIS":"6925.348","ARG_OF_PERICENTER":"70.7181","APOAPSIS":"548.036","GP_ID":"193808534","ECCENTRICITY":"0.00011880","FILE":"3272312","INCLINATION":"53.0551","BSTAR":"0.00006685800000","REF_FRAME":"TEME","PERIOD":"95.592","MEAN_MOTION_DDOT":"0.0000000000000","EPHEMERIS_TYPE":"0","DECAY_DATE":null,"SITE":"AFETR","CLASSIFICATION_TYPE":"U","MEAN_MOTION_DOT":"0.00000715","ELEMENT_SET_NO":"999","TLE_LINE2":"2 45400  53.0551 102.0022 0001188  70.7181 289.3936 15.06400207101392","PERIAPSIS":"546.390","OBJECT_NAME":"STARLINK-1213"},{"ARG_OF_PERICENTER":"97.4827","SEMIMAJOR_AXIS":"6925.387","MEAN_MOTION":"15.06387311","COUNTRY_CODE":"US","LAUNCH_DATE":"2020-03-18","REV_AT_EPOCH":"10146","MEAN_ELEMENT_THEORY":"SGP4","EPOCH":"2022-01-13T17:37:25.828608","TLE_LINE1":"1 45401U 20019AT  22013.73432672  .00000242  00000-0  35120-4 0  9991","NORAD_CAT_ID":"45401","CENTER_NAME":"EARTH","RA_OF_ASC_NODE":"102.0093","TIME_SYSTEM":"UTC","OBJECT_TYPE":"PAYLOAD","RCS_SIZE":"LARGE","MEAN_ANOMALY":"262.6296","OBJECT_ID":"2020-019AT","PERIAPSIS":"546.435","TLE_LINE2":"2 45401  53.0549 102.0093 0001181  97.4827 262.6296 15.06387311101465","OBJECT_NAME":"STARLINK-1256","CLASSIFICATION_TYPE":"U","SITE":"AFETR","DECAY_DATE":null,"ELEMENT_SET_NO":"999","MEAN_MOTION_DOT":"0.00000242","EPHEMERIS_TYPE":"0","PERIOD":"95.593","MEAN_MOTION_DDOT":"0.0000000000000","REF_FRAME":"TEME","INCLINATION":"53.0549","BSTAR":"0.00003512000000","FILE":"3272312","ECCENTRICITY":"0.00011810","APOAPSIS":"548.070","GP_ID":"193808784"},{"SITE":"AFETR","CLASSIFICATION_TYPE":"U","DECAY_DATE":null,"ELEMENT_SET_NO":"999","MEAN_MOTION_DOT":"0.00000404","TLE_LINE2":"2 45402  53.0549 102.0191 0001262 101.6515 258.4616 15.06396944101479","PERIAPSIS":"546.349","OBJECT_NAME":"STARLINK-1257","PERIOD":"95.592","MEAN_MOTION_DDOT":"0.0000000000000","EPHEMERIS_TYPE":"0","INCLINATION":"53.0549","BSTAR":"0.00004600200000","REF_FRAME":"TEME","GP_ID":"193810036","APOAPSIS":"548.097","FILE":"3272312","ECCENTRICITY":"0.00012620","LAUNCH_DATE":"2020-03-18","ARG_OF_PERICENTER":"101.6515","SEMIMAJOR_AXIS":"6925.358","COUNTRY_CODE":"US","MEAN_MOTION":"15.06396944","REV_AT_EPOCH":"10147","OBJECT_TYPE":"PAYLOAD","TIME_SYSTEM":"UTC","RCS_SIZE":"LARGE","EPOCH":"2022-01-13T17:32:07.069632","MEAN_ELEMENT_THEORY":"SGP4","TLE_LINE1":"1 45402U 20019AU  22013.73063738  .00000404  00000-0  46002-4 0  9996","CENTER_NAME":"EARTH","NORAD_CAT_ID":"45402","RA_OF_ASC_NODE":"102.0191","OBJECT_ID":"2020-019AU","MEAN_ANOMALY":"258.4616"},{"OBJECT_NAME":"STARLINK-1259","PERIAPSIS":"546.493","TLE_LINE2":"2 45403  53.0552 102.5612 0001113  94.8506 265.2610 15.06383588101442","MEAN_MOTION_DOT":"0.00003629","ELEMENT_SET_NO":"999","DECAY_DATE":null,"CLASSIFICATION_TYPE":"U","SITE":"AFETR","EPHEMERIS_TYPE":"0","MEAN_MOTION_DDOT":"0.0000000000000","PERIOD":"95.593","REF_FRAME":"TEME","BSTAR":"0.00026248000000","INCLINATION":"53.0552","ECCENTRICITY":"0.00011130","FILE":"3272312","GP_ID":"193810287","APOAPSIS":"548.035","MEAN_MOTION":"15.06383588","COUNTRY_CODE":"US","SEMIMAJOR_AXIS":"6925.399","ARG_OF_PERICENTER":"94.8506","LAUNCH_DATE":"2020-03-18","REV_AT_EPOCH":"10144","RA_OF_ASC_NODE":"102.5612","TLE_LINE1":"1 45403U 20019AV  22013.61269505  .00003629  00000-0  26248-3 0  9995","CENTER_NAME":"EARTH","NORAD_CAT_ID":"45403","EPOCH":"2022-01-13T14:42:16.852320","MEAN_ELEMENT_THEORY":"SGP4","RCS_SIZE":"LARGE","OBJECT_TYPE":"PAYLOAD","TIME_SYSTEM":"UTC","MEAN_ANOMALY":"265.2610","OBJECT_ID":"2020-019AV"},{"OBJECT_NAME":"STARLINK-1260","PERIAPSIS":"546.418","TLE_LINE2":"2 45404  53.0539 101.8988 0001178  78.7529 281.3592 15.06393289101372","ELEMENT_SET_NO":"999","MEAN_MOTION_DOT":"0.00000286","SITE":"AFETR","CLASSIFICATION_TYPE":"U","DECAY_DATE":null,"EPHEMERIS_TYPE":"0","PERIOD":"95.593","MEAN_MOTION_DDOT":"0.0000000000000","REF_FRAME":"TEME","BSTAR":"0.00003812100000","INCLINATION":"53.0539","ECCENTRICITY":"0.00011780","FILE":"3272312","GP_ID":"193809035","APOAPSIS":"548.050","ARG_OF_PERICENTER":"78.7529","SEMIMAJOR_AXIS":"6925.369","COUNTRY_CODE":"US","MEAN_MOTION":"15.06393289","LAUNCH_DATE":"2020-03-18","REV_AT_EPOCH":"10137","RA_OF_ASC_NODE":"101.8988","EPOCH":"2022-01-13T18:09:16.590528","MEAN_ELEMENT_THEORY":"SGP4","TLE_LINE1":"1 45404U 20019AW  22013.75644202  .00000286  00000-0  38121-4 0  9992","CENTER_NAME":"EARTH","NORAD_CAT_ID":"45404","RCS_SIZE":"LARGE","TIME_SYSTEM":"UTC","OBJECT_TYPE":"PAYLOAD","MEAN_ANOMALY":"281.3592","OBJECT_ID":"2020-019AW"}];
